SKYSAT-C1               
1 41601U 16040C   26179.61415584  .00008233  00000+0  23332-3 0  9993
2 41601  96.9558 210.7152 0002291  34.8547 325.2848 15.36489099559622
LAPAN-A3                
1 41603U 16040E   26179.61306774  .00003120  00000+0  99569-4 0  9991
2 41603  97.1487 175.3836 0009458 345.3903  14.7065 15.33176772556560
GAOFEN-3                
1 41727U 16049A   26179.60072410  .00000039  00000+0  24971-4 0  9994
2 41727  98.4009 187.2142 0001616  95.7119 264.4256 14.42216874520290
SKYSAT-C4               
1 41771U 16058B   26179.57443217  .00015223  00000+0  28335-3 0  9994
2 41771  96.9170 200.8711 0002244 140.1150 220.0267 15.48938688547237
SKYSAT-C5               
1 41772U 16058C   26179.58063492  .00007162  00000+0  21567-3 0  9992
2 41772  97.0464 219.7128 0001430 208.4068 151.7099 15.34627476545493
SKYSAT-C2               
1 41773U 16058D   26179.61433185  .00011210  00000+0  26192-3 0  9995
2 41773  97.0161 201.2800 0003598  45.6227 314.5315 15.42324248546813
SKYSAT-C3               
1 41774U 16058E   26179.61442098  .00021246  00000+0  34152-3 0  9994
2 41774  96.9005 210.0237 0001291 126.3483 233.7891 15.53021167547885
ALSAT-1B                
1 41785U 16059C   26179.59003846  .00000473  00000+0  82312-4 0  9999
2 41785  97.7747 187.8615 0008977 180.3735 179.7468 14.72283155522258
PATHFINDER 1            
1 41787U 16059E   26179.59020652  .00000558  00000+0  10570-3 0  9995
2 41787  97.8167 178.3519 0028735 167.0138 193.1814 14.67675215521382
SCATSAT 1               
1 41790U 16059H   26179.43983858  .00001197  00000+0  16364-3 0  9995
2 41790  98.1188 243.3220 0053956 210.5458 149.2607 14.79549281103257
GOKTURK 1A              
1 41875U 16073A   26179.66917696  .00000053  00000+0  19515-4 0  9999
2 41875  98.1246  74.1636 0001413  79.6770 280.4592 14.62781396510507
RESOURCESAT-2A          
1 41877U 16074A   26179.61347266  .00000675  00000+0  32782-3 0  9997
2 41877  98.7532 253.0247 0003168  61.3252 298.8244 14.21605871495924
CARTOSAT-2D             
1 41948U 17008A   26179.61879966  .00005933  00000+0  28422-3 0  9999
2 41948  97.4111 238.7109 0004845 186.9069 173.2100 15.19295450519315
SENTINEL-2B             
1 42063U 17013A   26179.60608537  .00000423  00000+0  17819-3 0  9994
2 42063  98.5696 254.2196 0001210  89.0052 271.1269 14.30821176486275
CARTOSAT-2E             
1 42767U 17036C   26179.63652762  .00007274  00000+0  34816-3 0  9999
2 42767  97.4276 239.2505 0002304 262.2429  97.8544 15.19257556499886
FORMOSAT-5              
1 42920U 17049A   26179.56975970  .00000147  00000+0  48269-4 0  9995
2 42920  98.2253 254.6266 0012353  52.6703 307.5616 14.50902683468325
SENTINEL-5P             
1 42969U 17064A   26179.55012007  .00000030  00000+0  35212-4 0  9992
2 42969  98.7926 121.6007 0001029  90.7378 269.3916 14.19520760451175
SKYSAT-C11              
1 42987U 17068A   26179.36013354  .00026054  00000+0  34266-3 0  9992
2 42987  97.4356 328.6819 0000421 135.2283 224.9007 15.58466532484986
SKYSAT-C10              
1 42988U 17068B   26179.63721881  .00008361  00000+0  25001-3 0  9992
2 42988  97.4513 316.5973 0001205 107.9464 252.1910 15.34824638484117
SKYSAT-C9               
1 42989U 17068C   26178.88362250  .00013064  00000+0  30979-3 0  9996
2 42989  97.4434 316.8736 0009521  99.4995 260.7328 15.41819413484406
SKYSAT-C8               
1 42990U 17068D   26179.65616758  .00009979  00000+0  27623-3 0  9991
2 42990  97.4532 316.4602 0001332  94.8123 265.3274 15.37193440484073
SKYSAT-C7               
1 42991U 17068E   26179.38975282  .00009897  00000+0  27425-3 0  9991
2 42991  97.4542 317.1803 0006969  73.8158 286.3852 15.37141842484098
SKYSAT-C6               
1 42992U 17068F   26179.62618704  .00008442  00000+0  25771-3 0  9999
2 42992  97.4580 317.3452 0005194 119.8708 240.3052 15.34154663484076
CARTOSAT-2F             
1 43111U 18004A   26179.60288517  .00005734  00000+0  27483-3 0  9990
2 43111  97.4788 239.1263 0001854 160.5239 199.6067 15.19303591469065
GAOFEN-1 02             
1 43259U 18031A   26179.61634847  .00001339  00000+0  20000-3 0  9990
2 43259  98.0528 242.1113 0002775   2.2742 357.8479 14.76426080444383
GAOFEN-1 03             
1 43260U 18031B   26179.66213596  .00000130  00000+0  26084-4 0  9998
2 43260  98.0514 242.0142 0003539  55.7206 304.4338 14.76440006444384
GAOFEN-1 04             
1 43262U 18031D   26179.63793245  .00000829  00000+0  12653-3 0  9992
2 43262  98.0529 242.1822 0001974  63.4064 296.7348 14.76450458444372
SENTINEL-3B             
1 43437U 18039A   26179.62088260  .00000103  00000+0  60673-4 0  9998
2 43437  98.6246 246.9890 0000786 110.5221 249.6044 14.26737799425756
GAOFEN-5 01             
1 43461U 18043A   26179.50205709  .00000323  00000+0  76486-4 0  9999
2 43461  98.4576 151.3262 0002844  63.1906 296.9585 14.60613015433340
GAOFEN-6                
1 43484U 18048A   26179.65952358  .00000568  00000+0  89296-4 0  9998
2 43484  98.0895 242.3222 0011669 128.2341 231.9921 14.76375114435081
