OBJECT_NAME,OBJECT_ID,EPOCH,MEAN_MOTION,ECCENTRICITY,INCLINATION,RA_OF_ASC_NODE,ARG_OF_PERICENTER,MEAN_ANOMALY,EPHEMERIS_TYPE,CLASSIFICATION_TYPE,NORAD_CAT_ID,ELEMENT_SET_NO,REV_AT_EPOCH,BSTAR,MEAN_MOTION_DOT,MEAN_MOTION_DDOT
SKYSAT-C1,2016-040C,2026-06-28T14:44:23.064576,15.36489099,.0002291,96.9558,210.7152,34.8547,325.2848,0,U,41601,999,55962,.23331611E-3,.8233E-4,0
LAPAN-A3,2016-040E,2026-06-28T14:42:49.052736,15.33176772,.00094581,97.1487,175.3836,345.3903,14.7065,0,U,41603,999,55656,.99568766E-4,.312E-4,0
GAOFEN-3,2016-049A,2026-06-28T14:25:02.562240,14.42216874,.00016164,98.4009,187.2142,95.7119,264.4256,0,U,41727,999,52029,.24970685E-4,.39E-6,0
SKYSAT-C4,2016-058B,2026-06-28T13:47:10.939488,15.48938688,.00022444,96.9170,200.8711,140.1150,220.0267,0,U,41771,999,54723,.28334717E-3,.15223E-3,0
SKYSAT-C5,2016-058C,2026-06-28T13:56:06.857088,15.34627476,.00014301,97.0464,219.7128,208.4068,151.7099,0,U,41772,999,54549,.21566603E-3,.7162E-4,0
SKYSAT-C2,2016-058D,2026-06-28T14:44:38.271840,15.42324248,.00035988,97.0161,201.2800,45.6227,314.5315,0,U,41773,999,54681,.26192374E-3,.1121E-3,0
SKYSAT-C3,2016-058E,2026-06-28T14:44:45.972672,15.53021167,.00012919,96.9005,210.0237,126.3483,233.7891,0,U,41774,999,54788,.34151907E-3,.21246E-3,0
ALSAT-1B,2016-059C,2026-06-28T14:09:39.322944,14.72283155,.00089773,97.7747,187.8615,180.3735,179.7468,0,U,41785,999,52225,.82311902E-4,.473E-5,0
PATHFINDER 1,2016-059E,2026-06-28T14:09:53.843328,14.67675215,.0028735,97.8167,178.3519,167.0138,193.1814,0,U,41787,999,52138,.10570143E-3,.558E-5,0
SCATSAT 1,2016-059H,2026-06-28T10:33:22.053312,14.79549281,.00539563,98.1188,243.3220,210.5458,149.2607,0,U,41790,999,10325,.1636416E-3,.1197E-4,0
GOKTURK 1A,2016-073A,2026-06-28T16:03:36.889344,14.62781396,.00014138,98.1246,74.1636,79.6770,280.4592,0,U,41875,999,51050,.19514906E-4,.53E-6,0
RESOURCESAT-2A,2016-074A,2026-06-28T14:43:24.037824,14.21605871,.00031687,98.7532,253.0247,61.3252,298.8244,0,U,41877,999,49592,.32781612E-3,.675E-5,0
CARTOSAT-2D,2017-008A,2026-06-28T14:51:04.290624,15.19295450,.00048456,97.4111,238.7109,186.9069,173.2100,0,U,41948,999,51931,.28421968E-3,.5933E-4,0
SENTINEL-2B,2017-013A,2026-06-28T14:32:45.775968,14.30821176,.00012107,98.5696,254.2196,89.0052,271.1269,0,U,42063,999,48627,.17819137E-3,.423E-5,0
CARTOSAT-2E,2017-036C,2026-06-28T15:16:35.986368,15.19257556,.00023042,97.4276,239.2505,262.2429,97.8544,0,U,42767,999,49988,.34816437E-3,.7274E-4,0
FORMOSAT-5,2017-049A,2026-06-28T13:40:27.238080,14.50902683,.00123537,98.2253,254.6266,52.6703,307.5616,0,U,42920,999,46832,.48269333E-4,.147E-5,0
SENTINEL-5P,2017-064A,2026-06-28T13:12:10.374048,14.19520760,.00010299,98.7926,121.6007,90.7378,269.3916,0,U,42969,999,45117,.35211913E-4,.3E-6,0
SKYSAT-C11,2017-068A,2026-06-28T08:38:35.537856,15.58466532,.00004212,97.4356,328.6819,135.2283,224.9007,0,U,42987,999,48498,.34266233E-3,.26054E-3,0
SKYSAT-C10,2017-068B,2026-06-28T15:17:35.705184,15.34824638,.00012058,97.4513,316.5973,107.9464,252.1910,0,U,42988,999,48411,.25000542E-3,.8361E-4,0
SKYSAT-C9,2017-068C,2026-06-27T21:12:24.984000,15.41819413,.0009521,97.4434,316.8736,99.4995,260.7328,0,U,42989,999,48440,.30979E-3,.13064E-3,0
SKYSAT-C8,2017-068D,2026-06-28T15:44:52.878912,15.37193440,.00013322,97.4532,316.4602,94.8123,265.3274,0,U,42990,999,48407,.27623116E-3,.9979E-4,0
SKYSAT-C7,2017-068E,2026-06-28T09:21:14.643648,15.37141842,.00069696,97.4542,317.1803,73.8158,286.3852,0,U,42991,999,48409,.27424995E-3,.9897E-4,0
SKYSAT-C6,2017-068F,2026-06-28T15:01:42.560256,15.34154663,.00051946,97.4580,317.3452,119.8708,240.3052,0,U,42992,999,48407,.2577081E-3,.8442E-4,0
CARTOSAT-2F,2018-004A,2026-06-28T14:28:09.278688,15.19303591,.00018548,97.4788,239.1263,160.5239,199.6067,0,U,43111,999,46906,.27482839E-3,.5734E-4,0
GAOFEN-1 02,2018-031A,2026-06-28T14:47:32.507808,14.76426080,.00027757,98.0528,242.1113,2.2742,357.8479,0,U,43259,999,44438,.19999723E-3,.1339E-4,0
GAOFEN-1 03,2018-031B,2026-06-28T15:53:28.546944,14.76440006,.00035399,98.0514,242.0142,55.7206,304.4338,0,U,43260,999,44438,.26084375E-4,.13E-5,0
GAOFEN-1 04,2018-031D,2026-06-28T15:18:37.363680,14.76450458,.00019746,98.0529,242.1822,63.4064,296.7348,0,U,43262,999,44437,.12652957E-3,.829E-5,0
SENTINEL-3B,2018-039A,2026-06-28T14:54:04.256640,14.26737799,.0000786,98.6246,246.9890,110.5221,249.6044,0,U,43437,999,42575,.60672718E-4,.103E-5,0
GAOFEN-5 01,2018-043A,2026-06-28T12:02:57.732576,14.60613015,.00028445,98.4576,151.3262,63.1906,296.9585,0,U,43461,999,43334,.76485968E-4,.323E-5,0
GAOFEN-6,2018-048A,2026-06-28T15:49:42.837312,14.76375114,.00116693,98.0895,242.3222,128.2341,231.9921,0,U,43484,999,43508,.89295706E-4,.568E-5,0
